OBJECT_NAME,OBJECT_ID,EPOCH,MEAN_MOTION,ECCENTRICITY,INCLINATION,RA_OF_ASC_NODE,ARG_OF_PERICENTER,MEAN_ANOMALY,EPHEMERIS_TYPE,CLASSIFICATION_TYPE,NORAD_CAT_ID,ELEMENT_SET_NO,REV_AT_EPOCH,BSTAR,MEAN_MOTION_DOT,MEAN_MOTION_DDOT
BEIDOU-2 G3,2010-024A,2026-07-10T13:59:00.750048,1.00269132,.00072393,4.5675,61.4075,359.3979,157.0611,0,U,36590,999,5900,0,-.129E-5,0
BADR-5,2010-025A,2026-07-10T07:33:38.628288,1.00275776,.00054139,0.0423,131.1268,63.9227,237.0959,0,U,36592,999,5344,0,.164E-5,0
COMS 1,2010-032A,2026-07-10T01:32:39.490080,0.99169083,.00113297,4.8608,75.0799,14.8797,203.6336,0,U,36744,999,5131,0,-.223E-5,0
ARABSAT-5A,2010-032B,2026-07-10T13:44:58.352640,1.00271927,.00056659,0.1008,64.2804,54.9794,45.9507,0,U,36745,999,5888,0,.163E-5,0
ECHOSTAR 15,2010-034A,2026-07-10T13:02:24.931968,1.00271033,.00019313,0.0564,270.8584,175.9953,278.3954,0,U,36792,999,5855,0,.1E-6,0
BEIDOU-2 IGSO-1,2010-036A,2026-07-07T14:57:11.145024,1.00266308,.0059224,54.3062,162.7756,225.1869,229.2421,0,U,36828,999,5830,0,-.58E-6,0
NILESAT 201,2010-037A,2026-07-10T13:34:21.869760,1.00271679,.00054583,0.0287,153.6760,343.2924,348.1215,0,U,36830,999,5861,0,-.48E-6,0
RASCOM-QAF 1R,2010-037B,2026-07-10T13:36:59.118624,1.00272284,.00064602,0.0230,77.2195,23.2422,35.1540,0,U,36831,999,5854,0,.28E-6,0
AEHF-1 (USA 214),2010-039A,2026-07-10T06:54:15.976224,1.00272204,.0003728,8.2749,67.7424,37.1284,316.8342,0,U,36868,999,5388,0,.15E-5,0
XM-5,2010-053A,2026-07-10T07:21:08.989920,1.00272157,.00018582,0.0614,268.0589,315.7617,59.5021,0,U,37185,999,5771,0,-.12E-6,0
BSAT-3B,2010-056B,2026-07-10T05:34:14.328192,1.00269903,.00025484,0.0616,230.8905,314.7158,295.9456,0,U,37207,999,5233,0,-.339E-5,0
BEIDOU-2 G4,2010-057A,2026-07-10T14:21:58.456800,1.00270254,.00054779,3.7012,68.8027,185.1776,49.9788,0,U,37210,999,5752,0,-.107E-5,0
SKYTERRA 1,2010-061A,2026-07-10T13:07:24.453984,1.00270670,.00020933,5.1724,50.8097,37.0645,296.1088,0,U,37218,999,5742,0,-.113E-5,0
HYLAS 1,2010-065A,2026-07-09T22:19:36.584256,1.00638352,.00012379,5.6982,72.7378,142.7617,72.6481,0,U,37237,999,711,0,.156E-5,0
INTELSAT 17 (IS-17),2010-065B,2026-07-10T14:39:38.471616,1.00271739,.00026682,0.0162,88.5622,23.9194,101.9504,0,U,37238,999,5348,0,.8E-7,0
BEIDOU-2 IGSO-2,2010-068A,2026-07-09T15:52:30.256320,1.00275795,.00567631,47.5066,271.5534,213.3417,149.1450,0,U,37256,999,5702,0,-.201E-5,0
EUTELSAT KA-SAT 9A,2010-069A,2026-07-10T01:40:16.260960,1.00271426,.00045277,0.0598,11.9248,130.1855,179.9492,0,U,37258,999,4423,0,.73E-6,0
HISPASAT 30W-5,2010-070A,2026-07-10T10:02:24.747072,1.00271556,.00055396,0.0256,133.9193,350.6921,284.3371,0,U,37264,999,5341,0,-.206E-5,0
KOREASAT 6,2010-070B,2026-07-10T14:49:12.167616,1.00270430,.00024378,0.0239,30.0651,97.4563,183.2179,0,U,37265,999,5700,0,0,0
BEIDOU-2 IGSO-3,2011-013A,2026-07-09T12:26:44.979360,1.00261852,.00351984,62.4382,39.9419,183.2390,357.7550,0,U,37384,999,5588,0,-.172E-5,0
INTELSAT 28 (IS-28),2011-016A,2026-07-10T10:44:51.463968,1.00272240,.00036978,1.8633,82.3344,37.2743,298.2524,0,U,37392,999,5351,0,-.217E-5,0
YAHSAT 1A,2011-016B,2026-07-10T10:25:59.985984,1.00271028,.00030326,0.0267,48.7289,65.8949,22.7264,0,U,37393,999,4264,0,0,0
SBIRS GEO-1 (USA 230),2011-019A,2026-07-10T06:14:38.594688,1.00272538,.00019346,4.5860,53.1088,48.7576,331.7762,0,U,37481,999,5563,0,.106E-5,0
TELSTAR 14R,2011-021A,2026-07-10T13:18:23.400864,1.00271165,.00017365,0.0745,84.4629,356.3056,344.3140,0,U,37602,999,5606,0,-.27E-5,0
GSAT-8,2011-022A,2026-07-10T13:52:05.171232,1.00271627,.00026562,2.1886,81.5397,165.8340,304.2202,0,U,37605,999,5345,0,.92E-6,0
ST-2,2011-022B,2026-07-10T10:36:06.515712,1.00271862,.00014229,0.0227,35.5546,91.8638,47.9770,0,U,37606,999,5551,0,0,0
ZHONGXING-10,2011-026A,2026-07-10T17:26:00.386304,1.00269051,.0003295,1.1049,83.9350,23.4339,168.2741,0,U,37677,999,5523,0,-.18E-5,0
SES-3,2011-035A,2026-07-10T05:16:04.627200,1.00271138,.00019626,1.3833,82.8345,25.7066,155.6315,0,U,37748,999,5482,0,-.92E-6,0
KAZSAT-2,2011-035B,2026-07-10T07:10:14.444256,1.00270077,.00020552,0.0260,126.4813,44.4178,311.3918,0,U,37749,999,5363,0,-.187E-5,0
BEIDOU-2 IGSO-4,2011-038A,2026-07-09T21:45:21.777120,1.00280644,.01601787,54.6042,165.4715,231.4223,311.4635,0,U,37763,999,5487,0,.37E-6,0
ASTRA 1N,2011-041A,2026-07-10T13:41:51.152352,1.00269046,.00056105,0.0731,32.1753,75.5358,45.4501,0,U,37775,999,4476,0,.129E-5,0
BSAT-3C (JCSAT-110R),2011-041B,2026-07-10T11:21:38.695392,1.00269385,.00002856,0.0310,310.3023,287.3672,331.0878,0,U,37776,999,5070,0,-.34E-5,0
