BEIDOU-2 G3             
1 36590U 10024A   26191.58264757 -.00000129  00000+0  00000+0 0  9994
2 36590   4.5675  61.4075 0007239 359.3979 157.0611  1.00269132 59000
BADR-5                  
1 36592U 10025A   26191.31503042  .00000164  00000+0  00000+0 0  9999
2 36592   0.0423 131.1268 0005413  63.9227 237.0959  1.00275776 53446
COMS 1                  
1 36744U 10032A   26191.06434595 -.00000223  00000+0  00000+0 0  9991
2 36744   4.8608  75.0799 0011329  14.8797 203.6336  0.99169083 51319
ARABSAT-5A              
1 36745U 10032B   26191.57289760  .00000163  00000+0  00000+0 0  9992
2 36745   0.1008  64.2804 0005665  54.9794  45.9507  1.00271927 58888
ECHOSTAR 15             
1 36792U 10034A   26191.54334412  .00000010  00000+0  00000+0 0  9999
2 36792   0.0564 270.8584 0001931 175.9953 278.3954  1.00271033 58559
BEIDOU-2 IGSO-1         
1 36828U 10036A   26188.62304566 -.00000058  00000+0  00000+0 0  9996
2 36828  54.3062 162.7756 0059224 225.1869 229.2421  1.00266308 58302
NILESAT 201             
1 36830U 10037A   26191.56553090 -.00000048  00000+0  00000+0 0  9994
2 36830   0.0287 153.6760 0005458 343.2924 348.1215  1.00271679 58613
RASCOM-QAF 1R           
1 36831U 10037B   26191.56735091  .00000028  00000+0  00000+0 0  9995
2 36831   0.0230  77.2195 0006460  23.2422  35.1540  1.00272284 58546
AEHF-1 (USA 214)        
1 36868U 10039A   26191.28768491  .00000150  00000+0  00000+0 0  9992
2 36868   8.2749  67.7424 0003728  37.1284 316.8342  1.00272204 53887
XM-5                    
1 37185U 10053A   26191.30635405 -.00000012  00000+0  00000+0 0  9990
2 37185   0.0614 268.0589 0001858 315.7617  59.5021  1.00272157 57714
BSAT-3B                 
1 37207U 10056B   26191.23211028 -.00000339  00000+0  00000+0 0  9993
2 37207   0.0616 230.8905 0002548 314.7158 295.9456  1.00269903 52332
BEIDOU-2 G4             
1 37210U 10057A   26191.59859325 -.00000107  00000+0  00000+0 0  9998
2 37210   3.7012  68.8027 0005477 185.1776  49.9788  1.00270254 57522
SKYTERRA 1              
1 37218U 10061A   26191.54681081 -.00000113  00000+0  00000+0 0  9995
2 37218   5.1724  50.8097 0002093  37.0645 296.1088  1.00270670 57425
HYLAS 1                 
1 37237U 10065A   26190.93028454  .00000156  00000+0  00000+0 0  9997
2 37237   5.6982  72.7378 0001237 142.7617  72.6481  1.00638352  7114
INTELSAT 17 (IS-17)     
1 37238U 10065B   26191.61086194  .00000008  00000+0  00000+0 0  9995
2 37238   0.0162  88.5622 0002668  23.9194 101.9504  1.00271739 53485
BEIDOU-2 IGSO-2         
1 37256U 10068A   26190.66146130 -.00000201  00000+0  00000+0 0  9995
2 37256  47.5066 271.5534 0056763 213.3417 149.1450  1.00275795 57022
EUTELSAT KA-SAT 9A      
1 37258U 10069A   26191.06963265  .00000073  00000+0  00000+0 0  9995
2 37258   0.0598  11.9248 0004527 130.1855 179.9492  1.00271426 44232
HISPASAT 30W-5          
1 37264U 10070A   26191.41834198 -.00000206  00000+0  00000+0 0  9994
2 37264   0.0256 133.9193 0005539 350.6921 284.3371  1.00271556 53412
KOREASAT 6              
1 37265U 10070B   26191.61750194  .00000000  00000+0  00000+0 0  9991
2 37265   0.0239  30.0651 0002437  97.4563 183.2179  1.00270430 57004
BEIDOU-2 IGSO-3         
1 37384U 11013A   26190.51857615 -.00000172  00000+0  00000+0 0  9996
2 37384  62.4382  39.9419 0035198 183.2390 357.7550  1.00261852 55882
INTELSAT 28 (IS-28)     
1 37392U 11016A   26191.44781787 -.00000217  00000+0  00000+0 0  9997
2 37392   1.8633  82.3344 0003697  37.2743 298.2524  1.00272240 53516
YAHSAT 1A               
1 37393U 11016B   26191.43472206  .00000000  00000+0  00000+0 0  9999
2 37393   0.0267  48.7289 0003032  65.8949  22.7264  1.00271028 42649
SBIRS GEO-1 (USA 230)   
1 37481U 11019A   26191.26016892  .00000106  00000+0  00000+0 0  9993
2 37481   4.5860  53.1088 0001934  48.7576 331.7762  1.00272538 55633
TELSTAR 14R             
1 37602U 11021A   26191.55443751 -.00000270  00000+0  00000+0 0  9994
2 37602   0.0745  84.4629 0001736 356.3056 344.3140  1.00271165 56063
GSAT-8                  
1 37605U 11022A   26191.57783763  .00000092  00000+0  00000+0 0  9991
2 37605   2.1886  81.5397 0002656 165.8340 304.2202  1.00271627 53453
ST-2                    
1 37606U 11022B   26191.44174208  .00000000  00000+0  00000+0 0  9995
2 37606   0.0227  35.5546 0001422  91.8638  47.9770  1.00271862 55514
ZHONGXING-10            
1 37677U 11026A   26191.72639336 -.00000180  00000+0  00000+0 0  9996
2 37677   1.1049  83.9350 0003295  23.4339 168.2741  1.00269051 55236
SES-3                   
1 37748U 11035A   26191.21949800 -.00000092  00000+0  00000+0 0  9991
2 37748   1.3833  82.8345 0001962  25.7066 155.6315  1.00271138 54821
KAZSAT-2                
1 37749U 11035B   26191.29877829 -.00000187  00000+0  00000+0 0  9996
2 37749   0.0260 126.4813 0002055  44.4178 311.3918  1.00270077 53632
BEIDOU-2 IGSO-4         
1 37763U 11038A   26190.90650205  .00000037  00000+0  00000+0 0  9992
2 37763  54.6042 165.4715 0160178 231.4223 311.4635  1.00280644 54870
ASTRA 1N                
1 37775U 11041A   26191.57073093  .00000129  00000+0  00000+0 0  9999
2 37775   0.0731  32.1753 0005610  75.5358  45.4501  1.00269046 44766
BSAT-3C (JCSAT-110R)    
1 37776U 11041B   26191.47336453 -.00000340  00000+0  00000+0 0  9997
2 37776   0.0310 310.3023 0000285 287.3672 331.0878  1.00269385 50704
